<?xml version="1.0" encoding="UTF-8"?>
<ndm xmlns:xsi="http://www.w3.org/2001/XMLSchema-instance" xsi:noNamespaceSchemaLocation="https://sanaregistry.org/r/ndmxml_unqualified/ndmxml-2.0.0-master-2.0.xsd">
<omm id="CCSDS_OMM_VERS" version="2.0">
<header><CREATION_DATE/><ORIGINATOR/></header><body><segment><metadata><OBJECT_NAME>KUIPER-00035</OBJECT_NAME><OBJECT_ID>2025-088AA</OBJECT_ID><CENTER_NAME>EARTH</CENTER_NAME><REF_FRAME>TEME</REF_FRAME><TIME_SYSTEM>UTC</TIME_SYSTEM><MEAN_ELEMENT_THEORY>SGP4</MEAN_ELEMENT_THEORY></metadata><data><meanElements><EPOCH>2025-10-01T22:40:20.721792</EPOCH><MEAN_MOTION>14.79929631</MEAN_MOTION><ECCENTRICITY>.0003926</ECCENTRICITY><INCLINATION>51.9006</INCLINATION><RA_OF_ASC_NODE>96.0701</RA_OF_ASC_NODE><ARG_OF_PERICENTER>265.6675</ARG_OF_PERICENTER><MEAN_ANOMALY>94.3839</MEAN_ANOMALY></meanElements><tleParameters><EPHEMERIS_TYPE>0</EPHEMERIS_TYPE><CLASSIFICATION_TYPE>U</CLASSIFICATION_TYPE><NORAD_CAT_ID>63748</NORAD_CAT_ID><ELEMENT_SET_NO>999</ELEMENT_SET_NO><REV_AT_EPOCH>2400</REV_AT_EPOCH><BSTAR>-.3582E-3</BSTAR><MEAN_MOTION_DOT>-.2952E-4</MEAN_MOTION_DOT><MEAN_MOTION_DDOT>0</MEAN_MOTION_DDOT></tleParameters></data></segment></body></omm>
<omm id="CCSDS_OMM_VERS" version="2.0">
<header><CREATION_DATE/><ORIGINATOR/></header><body><segment><metadata><OBJECT_NAME>KUIPER-00037</OBJECT_NAME><OBJECT_ID>2025-088AB</OBJECT_ID><CENTER_NAME>EARTH</CENTER_NAME><REF_FRAME>TEME</REF_FRAME><TIME_SYSTEM>UTC</TIME_SYSTEM><MEAN_ELEMENT_THEORY>SGP4</MEAN_ELEMENT_THEORY></metadata><data><meanElements><EPOCH>2025-10-01T21:05:23.384832</EPOCH><MEAN_MOTION>14.79961498</MEAN_MOTION><ECCENTRICITY>.0007012</ECCENTRICITY><INCLINATION>51.9008</INCLINATION><RA_OF_ASC_NODE>95.3250</RA_OF_ASC_NODE><ARG_OF_PERICENTER>206.0093</ARG_OF_PERICENTER><MEAN_ANOMALY>154.0517</MEAN_ANOMALY></meanElements><tleParameters><EPHEMERIS_TYPE>0</EPHEMERIS_TYPE><CLASSIFICATION_TYPE>U</CLASSIFICATION_TYPE><NORAD_CAT_ID>63749</NORAD_CAT_ID><ELEMENT_SET_NO>999</ELEMENT_SET_NO><REV_AT_EPOCH>2479</REV_AT_EPOCH><BSTAR>.83635E-3</BSTAR><MEAN_MOTION_DOT>.6166E-4</MEAN_MOTION_DOT><MEAN_MOTION_DDOT>0</MEAN_MOTION_DDOT></tleParameters></data></segment></body></omm>
<omm id="CCSDS_OMM_VERS" version="2.0">
<header><CREATION_DATE/><ORIGINATOR/></header><body><segment><metadata><OBJECT_NAME>KUIPER-00038</OBJECT_NAME><OBJECT_ID>2025-088AC</OBJECT_ID><CENTER_NAME>EARTH</CENTER_NAME><REF_FRAME>TEME</REF_FRAME><TIME_SYSTEM>UTC</TIME_SYSTEM><MEAN_ELEMENT_THEORY>SGP4</MEAN_ELEMENT_THEORY></metadata><data><meanElements><EPOCH>2025-10-01T20:28:28.937280</EPOCH><MEAN_MOTION>14.77668171</MEAN_MOTION><ECCENTRICITY>.0005246</ECCENTRICITY><INCLINATION>51.9005</INCLINATION><RA_OF_ASC_NODE>80.0081</RA_OF_ASC_NODE><ARG_OF_PERICENTER>273.4686</ARG_OF_PERICENTER><MEAN_ANOMALY>86.5676</MEAN_ANOMALY></meanElements><tleParameters><EPHEMERIS_TYPE>0</EPHEMERIS_TYPE><CLASSIFICATION_TYPE>U</CLASSIFICATION_TYPE><NORAD_CAT_ID>63750</NORAD_CAT_ID><ELEMENT_SET_NO>999</ELEMENT_SET_NO><REV_AT_EPOCH>2400</REV_AT_EPOCH><BSTAR>.66055E-3</BSTAR><MEAN_MOTION_DOT>.4559E-4</MEAN_MOTION_DOT><MEAN_MOTION_DDOT>0</MEAN_MOTION_DDOT></tleParameters></data></segment></body></omm>
<omm id="CCSDS_OMM_VERS" version="2.0">
<header><CREATION_DATE/><ORIGINATOR/></header><body><segment><metadata><OBJECT_NAME>KUIPER-00039</OBJECT_NAME><OBJECT_ID>2025-134A</OBJECT_ID><CENTER_NAME>EARTH</CENTER_NAME><REF_FRAME>TEME</REF_FRAME><TIME_SYSTEM>UTC</TIME_SYSTEM><MEAN_ELEMENT_THEORY>SGP4</MEAN_ELEMENT_THEORY></metadata><data><meanElements><EPOCH>2025-10-02T03:17:43.862208</EPOCH><MEAN_MOTION>14.79493476</MEAN_MOTION><ECCENTRICITY>.0012739</ECCENTRICITY><INCLINATION>51.8991</INCLINATION><RA_OF_ASC_NODE>214.1881</RA_OF_ASC_NODE><ARG_OF_PERICENTER>129.8703</ARG_OF_PERICENTER><MEAN_ANOMALY>230.3381</MEAN_ANOMALY></meanElements><tleParameters><EPHEMERIS_TYPE>0</EPHEMERIS_TYPE><CLASSIFICATION_TYPE>U</CLASSIFICATION_TYPE><NORAD_CAT_ID>64500</NORAD_CAT_ID><ELEMENT_SET_NO>999</ELEMENT_SET_NO><REV_AT_EPOCH>1659</REV_AT_EPOCH><BSTAR>.14479E-2</BSTAR><MEAN_MOTION_DOT>.10731E-3</MEAN_MOTION_DOT><MEAN_MOTION_DDOT>0</MEAN_MOTION_DDOT></tleParameters></data></segment></body></omm>
<omm id="CCSDS_OMM_VERS" version="2.0">
<header><CREATION_DATE/><ORIGINATOR/></header><body><segment><metadata><OBJECT_NAME>KUIPER-00040</OBJECT_NAME><OBJECT_ID>2025-134B</OBJECT_ID><CENTER_NAME>EARTH</CENTER_NAME><REF_FRAME>TEME</REF_FRAME><TIME_SYSTEM>UTC</TIME_SYSTEM><MEAN_ELEMENT_THEORY>SGP4</MEAN_ELEMENT_THEORY></metadata><data><meanElements><EPOCH>2025-10-02T03:00:29.685312</EPOCH><MEAN_MOTION>14.80088921</MEAN_MOTION><ECCENTRICITY>.0019438</ECCENTRICITY><INCLINATION>51.8997</INCLINATION><RA_OF_ASC_NODE>225.4134</RA_OF_ASC_NODE><ARG_OF_PERICENTER>107.8338</ARG_OF_PERICENTER><MEAN_ANOMALY>252.4747</MEAN_ANOMALY></meanElements><tleParameters><EPHEMERIS_TYPE>0</EPHEMERIS_TYPE><CLASSIFICATION_TYPE>U</CLASSIFICATION_TYPE><NORAD_CAT_ID>64501</NORAD_CAT_ID><ELEMENT_SET_NO>999</ELEMENT_SET_NO><REV_AT_EPOCH>1643</REV_AT_EPOCH><BSTAR>.32664E-2</BSTAR><MEAN_MOTION_DOT>.24938E-3</MEAN_MOTION_DOT><MEAN_MOTION_DDOT>0</MEAN_MOTION_DDOT></tleParameters></data></segment></body></omm>
<omm id="CCSDS_OMM_VERS" version="2.0">
<header><CREATION_DATE/><ORIGINATOR/></header><body><segment><metadata><OBJECT_NAME>KUIPER-00041</OBJECT_NAME><OBJECT_ID>2025-134C</OBJECT_ID><CENTER_NAME>EARTH</CENTER_NAME><REF_FRAME>TEME</REF_FRAME><TIME_SYSTEM>UTC</TIME_SYSTEM><MEAN_ELEMENT_THEORY>SGP4</MEAN_ELEMENT_THEORY></metadata><data><meanElements><EPOCH>2025-10-02T02:58:47.548416</EPOCH><MEAN_MOTION>14.79920453</MEAN_MOTION><ECCENTRICITY>.0015311</ECCENTRICITY><INCLINATION>51.8976</INCLINATION><RA_OF_ASC_NODE>226.7736</RA_OF_ASC_NODE><ARG_OF_PERICENTER>101.1511</ARG_OF_PERICENTER><MEAN_ANOMALY>259.1173</MEAN_ANOMALY></meanElements><tleParameters><EPHEMERIS_TYPE>0</EPHEMERIS_TYPE><CLASSIFICATION_TYPE>U</CLASSIFICATION_TYPE><NORAD_CAT_ID>64502</NORAD_CAT_ID><ELEMENT_SET_NO>999</ELEMENT_SET_NO><REV_AT_EPOCH>1641</REV_AT_EPOCH><BSTAR>-.66301E-3</BSTAR><MEAN_MOTION_DOT>-.5285E-4</MEAN_MOTION_DOT><MEAN_MOTION_DDOT>0</MEAN_MOTION_DDOT></tleParameters></data></segment></body></omm>
<omm id="CCSDS_OMM_VERS" version="2.0">
<header><CREATION_DATE/><ORIGINATOR/></header><body><segment><metadata><OBJECT_NAME>KUIPER-00042</OBJECT_NAME><OBJECT_ID>2025-134D</OBJECT_ID><CENTER_NAME>EARTH</CENTER_NAME><REF_FRAME>TEME</REF_FRAME><TIME_SYSTEM>UTC</TIME_SYSTEM><MEAN_ELEMENT_THEORY>SGP4</MEAN_ELEMENT_THEORY></metadata><data><meanElements><EPOCH>2025-10-02T03:03:39.521664</EPOCH><MEAN_MOTION>14.79274818</MEAN_MOTION><ECCENTRICITY>.0014439</ECCENTRICITY><INCLINATION>51.8977</INCLINATION><RA_OF_ASC_NODE>222.7531</RA_OF_ASC_NODE><ARG_OF_PERICENTER>110.6437</ARG_OF_PERICENTER><MEAN_ANOMALY>249.6074</MEAN_ANOMALY></meanElements><tleParameters><EPHEMERIS_TYPE>0</EPHEMERIS_TYPE><CLASSIFICATION_TYPE>U</CLASSIFICATION_TYPE><NORAD_CAT_ID>64503</NORAD_CAT_ID><ELEMENT_SET_NO>999</ELEMENT_SET_NO><REV_AT_EPOCH>1647</REV_AT_EPOCH><BSTAR>.15511E-2</BSTAR><MEAN_MOTION_DOT>.11457E-3</MEAN_MOTION_DOT><MEAN_MOTION_DDOT>0</MEAN_MOTION_DDOT></tleParameters></data></segment></body></omm>
<omm id="CCSDS_OMM_VERS" version="2.0">
<header><CREATION_DATE/><ORIGINATOR/></header><body><segment><metadata><OBJECT_NAME>KUIPER-00043</OBJECT_NAME><OBJECT_ID>2025-134E</OBJECT_ID><CENTER_NAME>EARTH</CENTER_NAME><REF_FRAME>TEME</REF_FRAME><TIME_SYSTEM>UTC</TIME_SYSTEM><MEAN_ELEMENT_THEORY>SGP4</MEAN_ELEMENT_THEORY></metadata><data><meanElements><EPOCH>2025-10-02T04:00:03.000096</EPOCH><MEAN_MOTION>14.80495407</MEAN_MOTION><ECCENTRICITY>.0004774</ECCENTRICITY><INCLINATION>51.9002</INCLINATION><RA_OF_ASC_NODE>215.0148</RA_OF_ASC_NODE><ARG_OF_PERICENTER>110.3298</ARG_OF_PERICENTER><MEAN_ANOMALY>51.3504</MEAN_ANOMALY></meanElements><tleParameters><EPHEMERIS_TYPE>0</EPHEMERIS_TYPE><CLASSIFICATION_TYPE>U</CLASSIFICATION_TYPE><NORAD_CAT_ID>64504</NORAD_CAT_ID><ELEMENT_SET_NO>999</ELEMENT_SET_NO><REV_AT_EPOCH>524</REV_AT_EPOCH><BSTAR>.13759E-2</BSTAR><MEAN_MOTION_DOT>.10425E-3</MEAN_MOTION_DOT><MEAN_MOTION_DDOT>0</MEAN_MOTION_DDOT></tleParameters></data></segment></body></omm>

</ndm>
