KUIPER-00035            
1 63748U 25088AA  25274.94468428 -.00002952  00000+0 -35820-3 0  9996
2 63748  51.9006  96.0701 0003926 265.6675  94.3839 14.79929631 24004
KUIPER-00037            
1 63749U 25088AB  25274.87874288  .00006166  00000+0  83635-3 0  9990
2 63749  51.9008  95.3250 0007012 206.0093 154.0517 14.79961498 24791
KUIPER-00038            
1 63750U 25088AC  25274.85311270  .00004559  00000+0  66055-3 0  9998
2 63750  51.9005  80.0081 0005246 273.4686  86.5676 14.77668171 24005
KUIPER-00039            
1 64500U 25134A   25275.13731322  .00010731  00000+0  14479-2 0  9991
2 64500  51.8991 214.1881 0012739 129.8703 230.3381 14.79493476 16592
KUIPER-00040            
1 64501U 25134B   25275.12534358  .00024938  00000+0  32664-2 0  9991
2 64501  51.8997 225.4134 0019438 107.8338 252.4747 14.80088921 16439
KUIPER-00041            
1 64502U 25134C   25275.12416144 -.00005285  00000+0 -66301-3 0  9996
2 64502  51.8976 226.7736 0015311 101.1511 259.1173 14.79920453 16413
KUIPER-00042            
1 64503U 25134D   25275.12754076  .00011457  00000+0  15511-2 0  9998
2 64503  51.8977 222.7531 0014439 110.6437 249.6074 14.79274818 16473
KUIPER-00043            
1 64504U 25134E   25275.16670139  .00010425  00000+0  13759-2 0  9996
2 64504  51.9002 215.0148 0004774 110.3298  51.3504 14.80495407  5246
